[{"OBJECT_NAME":"ONEWEB-0207","OBJECT_ID":"2021-031AJ","EPOCH":"2026-03-09T16:36:50.735232","MEAN_MOTION":13.14504164,"ECCENTRICITY":0.00016755,"INCLINATION":87.8988,"RA_OF_ASC_NODE":309.545,"ARG_OF_PERICENTER":70.8719,"MEAN_ANOMALY":289.2592,"EPHEMERIS_TYPE":0,"CLASSIFICATION_TYPE":"U","NORAD_CAT_ID":48242,"ELEMENT_SET_NO":999,"REV_AT_EPOCH":23522,"BSTAR":-0.00054008609,"MEAN_MOTION_DOT":-1.87e-6,"MEAN_MOTION_DDOT":0},{"OBJECT_NAME":"UNKNOWN","OBJECT_ID":"","EPOCH":"2026-03-06T09:35:38.016384","MEAN_MOTION":13.23147973,"ECCENTRICITY":0.01508445,"INCLINATION":100.3415,"RA_OF_ASC_NODE":127.8689,"ARG_OF_PERICENTER":310.4646,"MEAN_ANOMALY":48.3401,"EPHEMERIS_TYPE":0,"CLASSIFICATION_TYPE":"U","NORAD_CAT_ID":270073,"ELEMENT_SET_NO":999,"REV_AT_EPOCH":30272,"BSTAR":0.0019679922,"MEAN_MOTION_DOT":8.36e-6,"MEAN_MOTION_DDOT":0}]
